GLOBALSTAR M035         
1 25851U 99037A   24311.57601924  .00000012  00000+0  28586-2 0  9997
2 25851  51.9927 191.4096 0013838 346.3994  37.4066 11.04534738 71669
GLOBALSTAR M032         
1 25852U 99037B   24311.46923596 -.00000192  00000+0 -40033-2 0  9990
2 25852  51.9984  32.2046 0011147 153.0878 207.0502 11.19059288109856
GLOBALSTAR M051         
1 25853U 99037C   24311.42208567 -.00000090  00000+0 -44432-3 0  9996
2 25853  51.9787 218.2841 0001093 130.3187 229.7719 11.42199146106938
GLOBALSTAR M030         
1 25854U 99037D   24311.51630774 -.00000125  00000+0 -10569-2 0  9998
2 25854  51.9904  38.3180 0003596  16.9497 343.1439 11.55102189124317
GLOBALSTAR M048         
1 25872U 99041A   24311.60033362 -.00000066  00000+0  11558-3 0  9996
2 25872  51.9330 144.2822 0013754 154.2666 239.9779 11.33851718 99732
GLOBALSTAR M026         
1 25873U 99041B   24311.46934160 -.00000079  00000+0 -53566-3 0  9997
2 25873  52.0025 311.9471 0001152 246.4002 284.1951 11.06827989123821
GLOBALSTAR M043         
1 25874U 99041C   24311.59109302  .00000007  00000+0  22344-2 0  9992
2 25874  51.9399 243.0777 0012748 295.7081 235.6852 11.25686658 97801
GLOBALSTAR M028         
1 25875U 99041D   24311.48313404 -.00000063  00000+0  24064-3 0  9996
2 25875  51.9599 137.1233 0062569 308.3810  51.1441 12.50569492162310
